{
  "type": "FeatureCollection",
  "features": [
    {
      "type": "Feature",
      "properties": {
        "norad_id": 38755,
        "name": "SPOT 6",
        "group": "resource",
        "lat": -7.554160228022974,
        "lon": 62.307606218128065,
        "alt_km": 701.7291349618663,
        "timestamp": "2025-12-22T14:45:57.041800+00:00",
        "meta_object_name": "SPOT 6",
        "meta_object_id": "2012-047A",
        "meta_epoch": "2025-12-22T06:34:06.430656",
        "meta_mean_motion": 14.5853921,
        "meta_eccentricity": 0.0001299,
        "meta_inclination": 98.1565,
        "meta_ra_of_asc_node": 60.8826,
        "meta_arg_of_pericenter": 78.5922,
        "meta_mean_anomaly": 281.5423,
        "meta_ephemeris_type": 0,
        "meta_classification_type": "U",
        "meta_norad_cat_id": 38755,
        "meta_element_set_no": 999,
        "meta_rev_at_epoch": 70726,
        "meta_bstar": 3.1870533e-05,
        "meta_mean_motion_dot": 1.03e-06,
        "meta_mean_motion_ddot": 0,
        "tle_line1": "1 38755U 12047A   25356.27368554  .00000103  00000+0  31871-4 0  9990",
        "tle_line2": "2 38755  98.1565  60.8826 0001299  78.5922 281.5423 14.58539210707263"
      },
      "geometry": {
        "type": "Point",
        "coordinates": [
          62.307606218128065,
          -7.554160228022974
        ]
      }
    },
    {
      "type": "Feature",
      "properties": {
        "norad_id": 39019,
        "name": "PLEIADES 1B",
        "group": "resource",
        "lat": -69.16515684363256,
        "lon": -133.09354157983222,
        "alt_km": 705.8826781726129,
        "timestamp": "2025-12-22T14:45:57.041809+00:00",
        "meta_object_name": "PLEIADES 1B",
        "meta_object_id": "2012-068A",
        "meta_epoch": "2025-12-22T05:23:15.353664",
        "meta_mean_motion": 14.58560064,
        "meta_eccentricity": 0.00011518,
        "meta_inclination": 98.1789,
        "meta_ra_of_asc_node": 68.7268,
        "meta_arg_of_pericenter": 85.8355,
        "meta_mean_anomaly": 274.2976,
        "meta_ephemeris_type": 0,
        "meta_classification_type": "U",
        "meta_norad_cat_id": 39019,
        "meta_element_set_no": 999,
        "meta_rev_at_epoch": 69505,
        "meta_bstar": 3.8126112e-05,
        "meta_mean_motion_dot": 1.32e-06,
        "meta_mean_motion_ddot": 0,
        "tle_line1": "1 39019U 12068A   25356.22448326  .00000132  00000+0  38126-4 0  9990",
        "tle_line2": "2 39019  98.1789  68.7268 0001151  85.8355 274.2976 14.58560064695056"
      },
      "geometry": {
        "type": "Point",
        "coordinates": [
          -133.09354157983222,
          -69.16515684363256
        ]
      }
    },
    {
      "type": "Feature",
      "properties": {
        "norad_id": 39030,
        "name": "GOKTURK 2",
        "group": "resource",
        "lat": -19.944357310345495,
        "lon": -159.4076530127045,
        "alt_km": 649.9452660835677,
        "timestamp": "2025-12-22T14:45:57.041819+00:00",
        "meta_object_name": "GOKTURK 2",
        "meta_object_id": "2012-073A",
        "meta_epoch": "2025-12-22T06:43:04.889280",
        "meta_mean_motion": 14.7530357,
        "meta_eccentricity": 0.00013374,
        "meta_inclination": 97.6884,
        "meta_ra_of_asc_node": 197.4639,
        "meta_arg_of_pericenter": 106.8796,
        "meta_mean_anomaly": 253.2561,
        "meta_ephemeris_type": 0,
        "meta_classification_type": "U",
        "meta_norad_cat_id": 39030,
        "meta_element_set_no": 999,
        "meta_rev_at_epoch": 69842,
        "meta_bstar": 9.971886e-05,
        "meta_mean_motion_dot": 6.28e-06,
        "meta_mean_motion_ddot": 0,
        "tle_line1": "1 39030U 12073A   25356.27991770  .00000628  00000+0  99719-4 0  9995",
        "tle_line2": "2 39030  97.6884 197.4639 0001337 106.8796 253.2561 14.75303570698427"
      },
      "geometry": {
        "type": "Point",
        "coordinates": [
          -159.4076530127045,
          -19.944357310345495
        ]
      }
    },
    {
      "type": "Feature",
      "properties": {
        "norad_id": 39084,
        "name": "LANDSAT 8",
        "group": "resource",
        "lat": 9.290681055041844,
        "lon": 63.18969248485625,
        "alt_km": 704.0883065760845,
        "timestamp": "2025-12-22T14:45:57.041829+00:00",
        "meta_object_name": "LANDSAT 8",
        "meta_object_id": "2013-008A",
        "meta_epoch": "2025-12-22T06:28:57.154080",
        "meta_mean_motion": 14.57112022,
        "meta_eccentricity": 0.00010626,
        "meta_inclination": 98.2059,
        "meta_ra_of_asc_node": 64.2024,
        "meta_arg_of_pericenter": 91.6064,
        "meta_mean_anomaly": 268.5256,
        "meta_ephemeris_type": 0,
        "meta_classification_type": "U",
        "meta_norad_cat_id": 39084,
        "meta_element_set_no": 999,
        "meta_rev_at_epoch": 67213,
        "meta_bstar": 0.00010370739,
        "meta_mean_motion_dot": 4.22e-06,
        "meta_mean_motion_ddot": 0,
        "tle_line1": "1 39084U 13008A   25356.27010595  .00000422  00000+0  10371-3 0  9998",
        "tle_line2": "2 39084  98.2059  64.2024 0001062  91.6064 268.5256 14.57112022672130"
      },
      "geometry": {
        "type": "Point",
        "coordinates": [
          63.18969248485625,
          9.290681055041844
        ]
      }
    },
    {
      "type": "Feature",
      "properties": {
        "norad_id": 39086,
        "name": "SARAL",
        "group": "resource",
        "lat": -30.569534433911883,
        "lon": -4.6816922563792245,
        "alt_km": 789.5661571136025,
        "timestamp": "2025-12-22T14:45:57.041840+00:00",
        "meta_object_name": "SARAL",
        "meta_object_id": "2013-009A",
        "meta_epoch": "2025-12-22T05:24:17.356896",
        "meta_mean_motion": 14.32760226,
        "meta_eccentricity": 0.00029631,
        "meta_inclination": 98.5502,
        "meta_ra_of_asc_node": 180.0318,
        "meta_arg_of_pericenter": 90.8062,
        "meta_mean_anomaly": 269.3461,
        "meta_ephemeris_type": 0,
        "meta_classification_type": "U",
        "meta_norad_cat_id": 39086,
        "meta_element_set_no": 999,
        "meta_rev_at_epoch": 67026,
        "meta_bstar": 5.9969784e-05,
        "meta_mean_motion_dot": 1.2e-06,
        "meta_mean_motion_ddot": 0,
        "tle_line1": "1 39086U 13009A   25356.22520089  .00000120  00000+0  59970-4 0  9994",
        "tle_line2": "2 39086  98.5502 180.0318 0002963  90.8062 269.3461 14.32760226670268"
      },
      "geometry": {
        "type": "Point",
        "coordinates": [
          -4.6816922563792245,
          -30.569534433911883
        ]
      }
    },
    {
      "type": "Feature",
      "properties": {
        "norad_id": 39150,
        "name": "GAOFEN-1",
        "group": "resource",
        "lat": 75.90830708404441,
        "lon": -79.16026630806634,
        "alt_km": 620.5121043440868,
        "timestamp": "2025-12-22T14:45:57.041850+00:00",
        "meta_object_name": "GAOFEN-1",
        "meta_object_id": "2013-018A",
        "meta_epoch": "2025-12-22T06:10:31.808640",
        "meta_mean_motion": 14.7649529,
        "meta_eccentricity": 0.00184607,
        "meta_inclination": 97.9321,
        "meta_ra_of_asc_node": 66.7486,
        "meta_arg_of_pericenter": 114.139,
        "meta_mean_anomaly": 246.1753,
        "meta_ephemeris_type": 0,
        "meta_classification_type": "U",
        "meta_norad_cat_id": 39150,
        "meta_element_set_no": 999,
        "meta_rev_at_epoch": 68213,
        "meta_bstar": 9.1652708e-05,
        "meta_mean_motion_dot": 5.89e-06,
        "meta_mean_motion_ddot": 0,
        "tle_line1": "1 39150U 13018A   25356.25731260  .00000589  00000+0  91653-4 0  9997",
        "tle_line2": "2 39150  97.9321  66.7486 0018460 114.1390 246.1753 14.76495290682131"
      },
      "geometry": {
        "type": "Point",
        "coordinates": [
          -79.16026630806634,
          75.90830708404441
        ]
      }
    },
    {
      "type": "Feature",
      "properties": {
        "norad_id": 39160,
        "name": "VNREDSAT 1",
        "group": "resource",
        "lat": 66.02351434870553,
        "lon": -110.17557220961896,
        "alt_km": 670.1265540692366,
        "timestamp": "2025-12-22T14:45:57.041860+00:00",
        "meta_object_name": "VNREDSAT 1",
        "meta_object_id": "2013-021B",
        "meta_epoch": "2025-12-22T06:03:25.551648",
        "meta_mean_motion": 14.64934743,
        "meta_eccentricity": 0.00012008,
        "meta_inclination": 97.9363,
        "meta_ra_of_asc_node": 51.1939,
        "meta_arg_of_pericenter": 82.041,
        "meta_mean_anomaly": 278.0929,
        "meta_ephemeris_type": 0,
        "meta_classification_type": "U",
        "meta_norad_cat_id": 39160,
        "meta_element_set_no": 999,
        "meta_rev_at_epoch": 67438,
        "meta_bstar": 5.2358278e-05,
        "meta_mean_motion_dot": 2.35e-06,
        "meta_mean_motion_ddot": 0,
        "tle_line1": "1 39160U 13021B   25356.25237907  .00000235  00000+0  52358-4 0  9998",
        "tle_line2": "2 39160  97.9363  51.1939 0001200  82.0410 278.0929 14.64934743674384"
      },
      "geometry": {
        "type": "Point",
        "coordinates": [
          -110.17557220961896,
          66.02351434870553
        ]
      }
    }
  ]
}